CCSDS_OMM_VERS,COMMENT,CREATION_DATE,ORIGINATOR,OBJECT_NAME,OBJECT_ID,CENTER_NAME,REF_FRAME,TIME_SYSTEM,MEAN_ELEMENT_THEORY,EPOCH,MEAN_MOTION,ECCENTRICITY,INCLINATION,RA_OF_ASC_NODE,ARG_OF_PERICENTER,MEAN_ANOMALY,EPHEMERIS_TYPE,CLASSIFICATION_TYPE,NORAD_CAT_ID,ELEMENT_SET_NO,REV_AT_EPOCH,BSTAR,MEAN_MOTION_DOT,MEAN_MOTION_DDOT,SEMIMAJOR_AXIS,PERIOD,APOAPSIS,PERIAPSIS,OBJECT_TYPE,RCS_SIZE,COUNTRY_CODE,LAUNCH_DATE,SITE,DECAY_DATE,FILE,GP_ID,TLE_LINE0,TLE_LINE1,TLE_LINE2
2,GENERATED VIA SPACE-TRACK.ORG API,2009-01-25T15:05:24,18 SPCS,SKYNET 4D,1998-002A,EARTH,TEME,UTC,SGP4,2009-01-25T11:31:45.106752,0.99152584,0.0004373,5.1859,57.8701,294.2053,234.2368,0,U,25134,999,4045,0.0001,-1.27e-06,0,42481.459,1452.307,36121.901,36084.747,PAYLOAD,LARGE,UK,1998-01-10,AFETR,,663738,69648814,0 SKYNET 4D,1 25134U 98002A   09025.48038318 -.00000127  00000-0  10000-3 0  9990,2 25134 005.1859 057.8701 0004373 294.2053 234.2368 00.99152584 40459
2,GENERATED VIA SPACE-TRACK.ORG API,2009-01-27T08:16:09,18 SPCS,SKYNET 4D,1998-002A,EARTH,TEME,UTC,SGP4,2009-01-26T01:43:06.577824,0.99152595,0.0004618,5.1868,57.8674,292.9829,86.5042,0,U,25134,999,4046,0.0001,-1.14e-06,0,42481.456,1452.306,36122.939,36083.703,PAYLOAD,LARGE,UK,1998-01-10,AFETR,,664417,69671368,0 SKYNET 4D,1 25134U 98002A   09026.07160391 -.00000114 +00000-0 +10000-3 0  9999,2 25134 005.1868 057.8674 0004618 292.9829 086.5042 00.99152595040466
2,GENERATED VIA SPACE-TRACK.ORG API,2009-01-28T14:52:56,18 SPCS,SKYNET 4D,1998-002A,EARTH,TEME,UTC,SGP4,2009-01-28T12:30:05.919840,0.99151934,0.0004614,5.1924,57.8514,292.9677,240.8242,0,U,25134,999,4048,0.0001,-5.9e-07,0,42481.645,1452.316,36123.111,36083.909,PAYLOAD,LARGE,UK,1998-01-10,AFETR,,665087,69689489,0 SKYNET 4D,1 25134U 98002A   09028.52090185 -.00000059  00000-0  10000-3 0  9992,2 25134 005.1924 057.8514 0004614 292.9677 240.8242 00.99151934 40484
2,GENERATED VIA SPACE-TRACK.ORG API,2009-01-30T09:32:13,18 SPCS,SKYNET 4D,1998-002A,EARTH,TEME,UTC,SGP4,2009-01-29T04:45:28.178783,0.99151787,0.0004621,5.1938,57.8487,292.9636,122.6101,0,U,25134,999,4049,0.0001,-4.4e-07,0,42481.687,1452.318,36123.182,36083.921,PAYLOAD,LARGE,UK,1998-01-10,AFETR,,665867,69713222,0 SKYNET 4D,1 25134U 98002A   09029.19824281 -.00000044 +00000-0 +10000-3 0  9992,2 25134 005.1938 057.8487 0004621 292.9636 122.6101 00.99151787040499
2,GENERATED VIA SPACE-TRACK.ORG API,2009-01-30T15:04:01,18 SPCS,SKYNET 4D,1998-002A,EARTH,TEME,UTC,SGP4,2009-01-30T12:36:06.689951,0.99151542,0.0004593,5.197,57.8419,293.1993,235.9982,0,U,25134,999,4050,0.0001,-1.6e-07,0,42481.757,1452.322,36123.133,36084.11,PAYLOAD,LARGE,UK,1998-01-10,AFETR,,666004,69716626,0 SKYNET 4D,1 25134U 98002A   09030.52507743 -.00000016  00000-0  10000-3 0  9991,2 25134 005.1970 057.8419 0004593 293.1993 235.9982 00.99151542 40503
2,GENERATED VIA SPACE-TRACK.ORG API,2009-02-01T07:59:32,18 SPCS,SKYNET 4D,1998-002A,EARTH,TEME,UTC,SGP4,2009-01-31T09:21:07.248672,0.99151449,0.0004599,5.1986,57.8359,293.0212,184.7995,0,U,25134,999,4051,0.0001,1e-08,0,42481.783,1452.323,36123.185,36084.111,PAYLOAD,LARGE,UK,1998-01-10,AFETR,,666583,69739131,0 SKYNET 4D,1 25134U 98002A   09031.38966723 +.00000001 +00000-0 +10000-3 0  9996,2 25134 005.1986 057.8359 0004599 293.0212 184.7995 00.99151449040514
2,GENERATED VIA SPACE-TRACK.ORG API,2009-02-01T15:06:05,18 SPCS,SKYNET 4D,1998-002A,EARTH,TEME,UTC,SGP4,2009-02-01T13:16:12.755424,0.9915135,0.0004614,5.2013,57.8306,293.4657,239.5861,0,U,25134,999,4052,0.0001,2.1e-07,0,42481.811,1452.325,36123.277,36084.075,PAYLOAD,LARGE,UK,1998-01-10,AFETR,,666739,69744134,0 SKYNET 4D,1 25134U 98002A   09032.55292541  .00000021  00000-0  10000-3 0  9998,2 25134 005.2013 057.8306 0004614 293.4657 239.5861 00.99151350 40526
2,GENERATED VIA SPACE-TRACK.ORG API,2009-02-03T07:52:04,18 SPCS,SKYNET 4D,1998-002A,EARTH,TEME,UTC,SGP4,2009-02-02T12:34:39.319680,0.99151277,0.0004636,5.2036,57.824,293.4376,226.2694,0,U,25134,999,4053,0.0001,3.5e-07,0,42481.832,1452.326,36123.392,36084.003,PAYLOAD,LARGE,UK,1998-01-10,AFETR,,667423,69766313,0 SKYNET 4D,1 25134U 98002A   09033.52406620 +.00000035 +00000-0 +10000-3 0  9996,2 25134 005.2036 057.8240 0004636 293.4376 226.2694 00.99151277040536
2,GENERATED VIA SPACE-TRACK.ORG API,2009-02-04T02:27:47,18 SPCS,SKYNET 4D,1998-002A,EARTH,TEME,UTC,SGP4,2009-02-03T08:36:38.870207,0.99151255,0.000463,5.2055,57.8179,293.5623,164.103,0,U,25134,999,4054,0.0001,4.5e-07,0,42481.838,1452.326,36123.373,36084.034,PAYLOAD,LARGE,UK,1998-01-10,AFETR,,667799,69774518,0 SKYNET 4D,1 25134U 98002A   09034.35878322  .00000045  00000-0  10000-3 0  9991,2 25134 005.2055 057.8179 0004630 293.5623 164.1030 00.99151255 40549
2,GENERATED VIA SPACE-TRACK.ORG API,2009-02-04T07:40:29,18 SPCS,SKYNET 4D,1998-002A,EARTH,TEME,UTC,SGP4,2009-02-03T08:36:38.870207,0.99151255,0.000463,5.2055,57.8179,293.5623,164.103,0,U,25134,999,4054,0.0001,4.5e-07,0,42481.838,1452.326,36123.373,36084.034,PAYLOAD,LARGE,UK,1998-01-10,AFETR,,667870,69780766,0 SKYNET 4D,1 25134U 98002A   09034.35878322 +.00000045 +00000-0 +10000-3 0  9991,2 25134 005.2055 057.8179 0004630 293.5623 164.1030 00.99151255040549
2,GENERATED VIA SPACE-TRACK.ORG API,2009-02-05T07:43:56,18 SPCS,SKYNET 4D,1998-002A,EARTH,TEME,UTC,SGP4,2009-02-04T08:36:36.075168,0.99151335,0.0004592,5.2078,57.813,293.5791,161.0309,0,U,25134,999,4055,0.0001,5.4e-07,0,42481.816,1452.325,36123.188,36084.173,PAYLOAD,LARGE,UK,1998-01-10,AFETR,,668472,69796019,0 SKYNET 4D,1 25134U 98002A   09035.35875087 +.00000054 +00000-0 +10000-3 0  9997,2 25134 005.2078 057.8130 0004592 293.5791 161.0309 00.99151335040559
2,GENERATED VIA SPACE-TRACK.ORG API,2009-02-07T07:39:38,18 SPCS,SKYNET 4D,1998-002A,EARTH,TEME,UTC,SGP4,2009-02-07T11:32:33.145152,0.99151672,0.0004642,5.2153,57.7935,293.5773,195.5167,0,U,25134,999,4058,0.0001,6.6e-07,0,42481.719,1452.32,36123.304,36083.864,PAYLOAD,LARGE,UK,1998-01-10,AFETR,,669379,69825580,0 SKYNET 4D,1 25134U 98002A   09038.48093918  .00000066  00000-0  10000-3 0  9992,2 25134 005.2153 057.7935 0004642 293.5773 195.5167 00.99151672 40582
2,GENERATED VIA SPACE-TRACK.ORG API,2009-02-10T11:41:21,18 SPCS,SKYNET 4D,1998-002A,EARTH,TEME,UTC,SGP4,2009-02-10T14:42:46.917792,0.99151876,0.0005158,5.224,57.7778,299.1906,227.9122,0,U,25134,999,4061,0.0001,5.9e-07,0,42481.661,1452.317,36125.438,36081.614,PAYLOAD,LARGE,UK,1998-01-10,AFETR,,670803,69867696,0 SKYNET 4D,1 25134U 98002A   09041.61304303  .00000059  00000-0  10000-3 0  9996,2 25134 005.2240 057.7778 0005158 299.1906 227.9122 00.99151876 40618
2,GENERATED VIA SPACE-TRACK.ORG API,2009-02-11T16:13:15,18 SPCS,SKYNET 4D,1998-002A,EARTH,TEME,UTC,SGP4,2009-02-11T15:43:17.167583,0.9915227,0.0005175,5.2264,57.7729,299.1642,239.8956,0,U,25134,999,4062,0.0001,5.1e-07,0,42481.549,1452.311,36125.398,36081.429,PAYLOAD,LARGE,UK,1998-01-10,AFETR,,671512,69883202,0 SKYNET 4D,1 25134U 98002A   09042.65505981  .00000051  00000-0  10000-3 0  9998,2 25134 005.2264 057.7729 0005175 299.1642 239.8956 00.99152270 40623
2,GENERATED VIA SPACE-TRACK.ORG API,2009-02-13T11:09:40,18 SPCS,SKYNET 4D,1998-002A,EARTH,TEME,UTC,SGP4,2009-02-12T05:54:48.932352,0.99152576,0.000524,5.2278,57.7687,299.898,90.2486,0,U,25134,999,4063,0.0001,4.6e-07,0,42481.461,1452.307,36125.586,36081.066,PAYLOAD,LARGE,UK,1998-01-10,AFETR,,672297,69906961,0 SKYNET 4D,1 25134U 98002A   09043.24639968 +.00000046 +00000-0 +10000-3 0  9991,2 25134 005.2278 057.7687 0005240 299.8980 090.2486 00.99152576040633
2,GENERATED VIA SPACE-TRACK.ORG API,2009-02-14T06:44:32,18 SPCS,SKYNET 4D,1998-002A,EARTH,TEME,UTC,SGP4,2009-02-13T12:45:18.144000,0.9915324,0.0005363,5.2309,57.7603,301.4715,187.3962,0,U,25134,999,4064,0.0001,3e-07,0,42481.272,1452.297,36125.919,36080.354,PAYLOAD,LARGE,UK,1998-01-10,AFETR,,672572,69913081,0 SKYNET 4D,1 25134U 98002A   09044.53146000  .00000030  00000-0  10000-3 0  9997,2 25134 005.2309 057.7603 0005363 301.4715 187.3962 00.99153240 40645
2,GENERATED VIA SPACE-TRACK.ORG API,2009-02-15T00:44:52,18 SPCS,SKYNET 4D,1998-002A,EARTH,TEME,UTC,SGP4,2009-02-14T13:02:24.090431,0.99153739,0.0005403,5.2332,57.7536,302.1186,187.9545,0,U,25134,999,4065,0.0001,1.4e-07,0,42481.129,1452.29,36125.947,36080.041,PAYLOAD,LARGE,UK,1998-01-10,AFETR,,672917,69926171,0 SKYNET 4D,1 25134U 98002A   09045.54333438  .00000014  00000-0  10000-3 0  9994,2 25134 005.2332 057.7536 0005403 302.1186 187.9545 00.99153739 40658
2,GENERATED VIA SPACE-TRACK.ORG API,2009-02-16T03:56:32,18 SPCS,SKYNET 4D,1998-002A,EARTH,TEME,UTC,SGP4,2009-02-15T13:11:13.077887,0.99154248,0.000544,5.2356,57.7471,302.7787,186.4487,0,U,25134,999,4066,0.0001,-5e-08,0,42480.984,1452.282,36125.958,36079.739,PAYLOAD,LARGE,UK,1998-01-10,AFETR,,673281,69939782,0 SKYNET 4D,1 25134U 98002A   09046.54945692 -.00000005  00000-0  10000-3 0  9997,2 25134 005.2356 057.7471 0005440 302.7787 186.4487 00.99154248 40662
2,GENERATED VIA SPACE-TRACK.ORG API,2009-02-16T22:52:31,18 SPCS,SKYNET 4D,1998-002A,EARTH,TEME,UTC,SGP4,2009-02-16T15:38:21.660576,0.99154837,0.0005443,5.2382,57.7392,304.4926,218.1826,0,U,25134,999,4067,0.0001,-2.9e-07,0,42480.815,1452.274,36125.803,36079.558,PAYLOAD,LARGE,UK,1998-01-10,AFETR,,673651,69953158,0 SKYNET 4D,1 25134U 98002A   09047.65163959 -.00000029  00000-0  10000-3 0  9994,2 25134 005.2382 057.7392 0005443 304.4926 218.1826 00.99154837 40675
2,GENERATED VIA SPACE-TRACK.ORG API,2009-02-18T03:00:14,18 SPCS,SKYNET 4D,1998-002A,EARTH,TEME,UTC,SGP4,2009-02-17T15:48:17.085312,0.99155328,0.0005361,5.2405,57.7326,304.5074,217.6009,0,U,25134,999,4068,0.0001,-5.3e-07,0,42480.675,1452.266,36125.314,36079.766,PAYLOAD,LARGE,UK,1998-01-10,AFETR,,674093,69966231,0 SKYNET 4D,1 25134U 98002A   09048.65853108 -.00000053  00000-0  10000-3 0  9994,2 25134 005.2405 057.7326 0005361 304.5074 217.6009 00.99155328 40686
